*******************************************************************************
Ephemeris / WWW_USER Fri Mar  7 10:19:19 2025 Pasadena, USA      / Horizons    
*******************************************************************************
Target body name: (2018 PK21)                     {source: JPL#33}
Center body name: Earth (399)                     {source: DE441}
Center-site name: Mauna Kea
*******************************************************************************
Start time      : A.D. 2018-Sep-25 04:25:00.0000 UT      
Stop  time      : A.D. 2018-Sep-25 16:02:00.0000 UT      
Step-size       : 1 minutes
*******************************************************************************
Target pole/equ : undefined
Target radii    : undefined                                                    
Center geodetic : 204.5278, 19.8260847, 4.21024   {E-lon(deg),Lat(deg),Alt(km)}
Center cylindric: 204.5278, 6006.35451, 2151.0229 {E-lon(deg),Dxy(km),Dz(km)}
Center pole/equ : ITRF93                          {East-longitude positive}
Center radii    : 6378.137, 6378.137, 6356.752 km {Equator_a, b, pole_c}       
Target primary  : Sun
Vis. interferer : MOON (R_eq= 1737.400) km        {source: DE441}
Rel. light bend : Sun                             {source: DE441}
Rel. lght bnd GM: 1.3271E+11 km^3/s^2                                          
Small-body perts: Yes                             {source: SB441-N16}
Atmos refraction: NO (AIRLESS)
RA format       : HMS
Time format     : CAL 
Calendar mode   : Mixed Julian/Gregorian
RTS-only print  : NO       
EOP file        : eop.250306.p250602                                           
EOP coverage    : DATA-BASED 1962-JAN-20 TO 2025-MAR-06. PREDICTS-> 2025-JUN-01
Units conversion: 1 au= 149597870.700 km, c= 299792.458 km/s, 1 day= 86400.0 s 
Table cut-offs 1: Elevation (-90.0deg=NO ),Airmass (>38.000=NO), Daylight (YES)
Table cut-offs 2: Solar elongation (  0.0,180.0=NO ),Local Hour Angle( 0.0=NO )
Table cut-offs 3: RA/DEC angular rate (     0.0=NO )                           
*******************************************************************************
Initial IAU76/J2000 heliocentric ecliptic osculating elements (au, days, deg.):
  EPOCH=  2458678.5 ! 2019-Jul-14.00 (TDB)         Residual RMS= .18538        
   EC= .08059571149071894  QR= .9080173735553244   TP= 2458556.3979336754      
   OM= 305.3714803879685   W=  224.0867446587677   IN= 1.196977749955446       
  Equivalent ICRF heliocentric cartesian coordinates (au, au/d):
   X= 5.084898226316541E-01  Y=-8.259633024476691E-01  Z=-3.605371187528673E-01
  VX= 1.486595997640644E-02 VY= 6.429710771461657E-03 VZ= 3.158008025433540E-03
Asteroid physical parameters (km, seconds, rotational period in hours):        
   GM= n.a.                RAD= n.a.               ROTPER= n.a.                
   H= 25.88                G= .150                 B-V= n.a.                   
                           ALBEDO= n.a.            STYP= n.a.                  
*******************************************************************************
 Date__(UT)__HR:MN     R.A._________(ICRF)_________DEC
******************************************************
$$SOE
 2018-Sep-25 06:28  m  20 43 06.161201 -07 20 34.59118
 2018-Sep-25 06:29  m  20 43 06.155895 -07 20 34.67745
 2018-Sep-25 06:30  m  20 43 06.150582 -07 20 34.76352
 2018-Sep-25 06:31  m  20 43 06.145262 -07 20 34.84937
 2018-Sep-25 06:32  m  20 43 06.139935 -07 20 34.93500
 2018-Sep-25 06:33  m  20 43 06.134602 -07 20 35.02043
 2018-Sep-25 06:34  m  20 43 06.129265 -07 20 35.10564
 2018-Sep-25 06:35  m  20 43 06.123922 -07 20 35.19064
 2018-Sep-25 06:36  m  20 43 06.118575 -07 20 35.27542
 2018-Sep-25 06:37  m  20 43 06.113224 -07 20 35.35999
 2018-Sep-25 06:38  m  20 43 06.107869 -07 20 35.44435
 2018-Sep-25 06:39  m  20 43 06.102512 -07 20 35.52849
 2018-Sep-25 06:40  m  20 43 06.097152 -07 20 35.61242
 2018-Sep-25 06:41  m  20 43 06.091789 -07 20 35.69614
 2018-Sep-25 06:42  m  20 43 06.086426 -07 20 35.77964
 2018-Sep-25 06:43  m  20 43 06.081061 -07 20 35.86293
 2018-Sep-25 06:44  m  20 43 06.075696 -07 20 35.94601
 2018-Sep-25 06:45  m  20 43 06.070331 -07 20 36.02888
 2018-Sep-25 06:46  m  20 43 06.064966 -07 20 36.11152
 2018-Sep-25 06:47  m  20 43 06.059602 -07 20 36.19396
 2018-Sep-25 06:48  m  20 43 06.054239 -07 20 36.27618
 2018-Sep-25 06:49  m  20 43 06.048878 -07 20 36.35819
 2018-Sep-25 06:50  t  20 43 06.043519 -07 20 36.43999
 2018-Sep-25 06:51  m  20 43 06.038164 -07 20 36.52157
 2018-Sep-25 06:52  m  20 43 06.032811 -07 20 36.60294
 2018-Sep-25 06:53  m  20 43 06.027462 -07 20 36.68409
 2018-Sep-25 06:54  m  20 43 06.022118 -07 20 36.76504
 2018-Sep-25 06:55  m  20 43 06.016778 -07 20 36.84576
 2018-Sep-25 06:56  m  20 43 06.011443 -07 20 36.92628
 2018-Sep-25 06:57  m  20 43 06.006114 -07 20 37.00658
 2018-Sep-25 06:58  m  20 43 06.000791 -07 20 37.08667
 2018-Sep-25 06:59  m  20 43 05.995475 -07 20 37.16654
 2018-Sep-25 07:00  m  20 43 05.990166 -07 20 37.24621
 2018-Sep-25 07:01  m  20 43 05.984865 -07 20 37.32566
 2018-Sep-25 07:02  m  20 43 05.979571 -07 20 37.40489
 2018-Sep-25 07:03  m  20 43 05.974286 -07 20 37.48391
 2018-Sep-25 07:04  m  20 43 05.969010 -07 20 37.56272
 2018-Sep-25 07:05  m  20 43 05.963744 -07 20 37.64132
 2018-Sep-25 07:06  m  20 43 05.958488 -07 20 37.71970
 2018-Sep-25 07:07  m  20 43 05.953242 -07 20 37.79788
 2018-Sep-25 07:08  m  20 43 05.948007 -07 20 37.87583
 2018-Sep-25 07:09  m  20 43 05.942783 -07 20 37.95358
 2018-Sep-25 07:10  m  20 43 05.937572 -07 20 38.03111
 2018-Sep-25 07:11  m  20 43 05.932372 -07 20 38.10843
 2018-Sep-25 07:12  m  20 43 05.927186 -07 20 38.18554
 2018-Sep-25 07:13  m  20 43 05.922013 -07 20 38.26244
 2018-Sep-25 07:14  m  20 43 05.916854 -07 20 38.33912
 2018-Sep-25 07:15  m  20 43 05.911709 -07 20 38.41560
 2018-Sep-25 07:16  m  20 43 05.906579 -07 20 38.49186
 2018-Sep-25 07:17  m  20 43 05.901464 -07 20 38.56791
 2018-Sep-25 07:18  m  20 43 05.896364 -07 20 38.64374
 2018-Sep-25 07:19  m  20 43 05.891281 -07 20 38.71937
 2018-Sep-25 07:20  m  20 43 05.886215 -07 20 38.79479
 2018-Sep-25 07:21  m  20 43 05.881166 -07 20 38.86999
 2018-Sep-25 07:22  m  20 43 05.876134 -07 20 38.94498
 2018-Sep-25 07:23  m  20 43 05.871121 -07 20 39.01976
 2018-Sep-25 07:24  m  20 43 05.866126 -07 20 39.09433
 2018-Sep-25 07:25  m  20 43 05.861150 -07 20 39.16869
 2018-Sep-25 07:26  m  20 43 05.856194 -07 20 39.24284
 2018-Sep-25 07:27  m  20 43 05.851257 -07 20 39.31678
 2018-Sep-25 07:28  m  20 43 05.846342 -07 20 39.39051
 2018-Sep-25 07:29  m  20 43 05.841447 -07 20 39.46403
 2018-Sep-25 07:30  m  20 43 05.836573 -07 20 39.53734
 2018-Sep-25 07:31  m  20 43 05.831722 -07 20 39.61044
 2018-Sep-25 07:32  m  20 43 05.826892 -07 20 39.68333
 2018-Sep-25 07:33  m  20 43 05.822086 -07 20 39.75601
 2018-Sep-25 07:34  m  20 43 05.817303 -07 20 39.82848
 2018-Sep-25 07:35  m  20 43 05.812544 -07 20 39.90074
 2018-Sep-25 07:36  m  20 43 05.807808 -07 20 39.97279
 2018-Sep-25 07:37  m  20 43 05.803098 -07 20 40.04464
 2018-Sep-25 07:38  m  20 43 05.798413 -07 20 40.11627
 2018-Sep-25 07:39  m  20 43 05.793753 -07 20 40.18770
 2018-Sep-25 07:40  m  20 43 05.789120 -07 20 40.25892
 2018-Sep-25 07:41  m  20 43 05.784513 -07 20 40.32993
 2018-Sep-25 07:42  m  20 43 05.779933 -07 20 40.40074
 2018-Sep-25 07:43  m  20 43 05.775381 -07 20 40.47134
 2018-Sep-25 07:44  m  20 43 05.770857 -07 20 40.54173
 2018-Sep-25 07:45  m  20 43 05.766361 -07 20 40.61191
 2018-Sep-25 07:46  m  20 43 05.761894 -07 20 40.68189
 2018-Sep-25 07:47  m  20 43 05.757457 -07 20 40.75166
 2018-Sep-25 07:48  m  20 43 05.753049 -07 20 40.82122
 2018-Sep-25 07:49  m  20 43 05.748672 -07 20 40.89058
 2018-Sep-25 07:50  m  20 43 05.744326 -07 20 40.95973
 2018-Sep-25 07:51  m  20 43 05.740010 -07 20 41.02868
 2018-Sep-25 07:52  m  20 43 05.735727 -07 20 41.09742
 2018-Sep-25 07:53  m  20 43 05.731475 -07 20 41.16596
 2018-Sep-25 07:54  m  20 43 05.727256 -07 20 41.23429
 2018-Sep-25 07:55  m  20 43 05.723071 -07 20 41.30242
 2018-Sep-25 07:56  m  20 43 05.718919 -07 20 41.37035
 2018-Sep-25 07:57  m  20 43 05.714801 -07 20 41.43807
 2018-Sep-25 07:58  m  20 43 05.710717 -07 20 41.50558
 2018-Sep-25 07:59  m  20 43 05.706668 -07 20 41.57290
 2018-Sep-25 08:00  m  20 43 05.702655 -07 20 41.64001
 2018-Sep-25 08:01  m  20 43 05.698677 -07 20 41.70691
 2018-Sep-25 08:02  m  20 43 05.694736 -07 20 41.77362
 2018-Sep-25 08:03  m  20 43 05.690832 -07 20 41.84012
 2018-Sep-25 08:04  m  20 43 05.686964 -07 20 41.90642
 2018-Sep-25 08:05  m  20 43 05.683135 -07 20 41.97252
 2018-Sep-25 08:06  m  20 43 05.679343 -07 20 42.03842
 2018-Sep-25 08:07  m  20 43 05.675590 -07 20 42.10412
 2018-Sep-25 08:08  m  20 43 05.671876 -07 20 42.16961
 2018-Sep-25 08:09  m  20 43 05.668202 -07 20 42.23491
 2018-Sep-25 08:10  m  20 43 05.664567 -07 20 42.30001
 2018-Sep-25 08:11  m  20 43 05.660973 -07 20 42.36490
 2018-Sep-25 08:12  m  20 43 05.657420 -07 20 42.42960
 2018-Sep-25 08:13  m  20 43 05.653908 -07 20 42.49410
 2018-Sep-25 08:14  m  20 43 05.650437 -07 20 42.55840
 2018-Sep-25 08:15  m  20 43 05.647009 -07 20 42.62250
 2018-Sep-25 08:16  m  20 43 05.643623 -07 20 42.68640
 2018-Sep-25 08:17  m  20 43 05.640281 -07 20 42.75011
 2018-Sep-25 08:18  m  20 43 05.636982 -07 20 42.81362
 2018-Sep-25 08:19  m  20 43 05.633727 -07 20 42.87693
 2018-Sep-25 08:20  m  20 43 05.630516 -07 20 42.94004
 2018-Sep-25 08:21  m  20 43 05.627350 -07 20 43.00296
 2018-Sep-25 08:22  m  20 43 05.624229 -07 20 43.06568
 2018-Sep-25 08:23  m  20 43 05.621154 -07 20 43.12821
 2018-Sep-25 08:24  m  20 43 05.618125 -07 20 43.19054
 2018-Sep-25 08:25  m  20 43 05.615143 -07 20 43.25268
 2018-Sep-25 08:26  m  20 43 05.612208 -07 20 43.31462
 2018-Sep-25 08:27  m  20 43 05.609320 -07 20 43.37637
 2018-Sep-25 08:28  m  20 43 05.606480 -07 20 43.43793
 2018-Sep-25 08:29  m  20 43 05.603689 -07 20 43.49929
 2018-Sep-25 08:30  m  20 43 05.600946 -07 20 43.56046
